[{"OBJECT_NAME":"COSMOS 2516 (753)","OBJECT_ID":"2016-032A","EPOCH":"2022-08-19T11:54:18.572256","MEAN_MOTION":2.13106426,"ECCENTRICITY":0.001504,"INCLINATION":63.909,"RA_OF_ASC_NODE":239.2565,"ARG_OF_PERICENTER":216.4641,"MEAN_ANOMALY":154.329,"EPHEMERIS_TYPE":0,"CLASSIFICATION_TYPE":"U","NORAD_CAT_ID":41554,"ELEMENT_SET_NO":999,"REV_AT_EPOCH":4844,"BSTAR":0,"MEAN_MOTION_DOT":8.2e-7,"MEAN_MOTION_DDOT":0},{"OBJECT_NAME":"COSMOS 2522 (752)","OBJECT_ID":"2017-055A","EPOCH":"2022-08-19T08:43:40.917792","MEAN_MOTION":2.1310199,"ECCENTRICITY":0.0010147,"INCLINATION":64.1421,"RA_OF_ASC_NODE":239.6745,"ARG_OF_PERICENTER":243.7924,"MEAN_ANOMALY":241.1845,"EPHEMERIS_TYPE":0,"CLASSIFICATION_TYPE":"U","NORAD_CAT_ID":42939,"ELEMENT_SET_NO":999,"REV_AT_EPOCH":3819,"BSTAR":0,"MEAN_MOTION_DOT":8.1e-7,"MEAN_MOTION_DDOT":0},{"OBJECT_NAME":"COSMOS 2527 (756)","OBJECT_ID":"2018-053A","EPOCH":"2022-08-19T09:32:46.362912","MEAN_MOTION":2.13102579,"ECCENTRICITY":0.0007723,"INCLINATION":64.9803,"RA_OF_ASC_NODE":120.7284,"ARG_OF_PERICENTER":230.2017,"MEAN_ANOMALY":313.0209,"EPHEMERIS_TYPE":0,"CLASSIFICATION_TYPE":"U","NORAD_CAT_ID":43508,"ELEMENT_SET_NO":999,"REV_AT_EPOCH":3248,"BSTAR":0,"MEAN_MOTION_DOT":-3.9e-7,"MEAN_MOTION_DDOT":0},{"OBJECT_NAME":"COSMOS 2529 (757)","OBJECT_ID":"2018-086A","EPOCH":"2022-08-19T09:11:23.794656","MEAN_MOTION":2.13102141,"ECCENTRICITY":0.0011925,"INCLINATION":64.3571,"RA_OF_ASC_NODE":240.0073,"ARG_OF_PERICENTER":262.8423,"MEAN_ANOMALY":192.431,"EPHEMERIS_TYPE":0,"CLASSIFICATION_TYPE":"U","NORAD_CAT_ID":43687,"ELEMENT_SET_NO":999,"REV_AT_EPOCH":2950,"BSTAR":0,"MEAN_MOTION_DOT":8.1e-7,"MEAN_MOTION_DDOT":0},{"OBJECT_NAME":"COSMOS 2534 (758)","OBJECT_ID":"2019-030A","EPOCH":"2022-08-19T01:50:42.660096","MEAN_MOTION":2.13101968,"ECCENTRICITY":0.0014146,"INCLINATION":64.4299,"RA_OF_ASC_NODE":239.908,"ARG_OF_PERICENTER":281.1768,"MEAN_ANOMALY":73.8522,"EPHEMERIS_TYPE":0,"CLASSIFICATION_TYPE":"U","NORAD_CAT_ID":44299,"ELEMENT_SET_NO":999,"REV_AT_EPOCH":2513,"BSTAR":0,"MEAN_MOTION_DOT":7.8e-7,"MEAN_MOTION_DDOT":0},{"OBJECT_NAME":"COSMOS 2544 (759)","OBJECT_ID":"2019-088A","EPOCH":"2022-08-19T08:07:09.823296","MEAN_MOTION":2.13102358,"ECCENTRICITY":0.0012176,"INCLINATION":64.9665,"RA_OF_ASC_NODE":120.5816,"ARG_OF_PERICENTER":259.559,"MEAN_ANOMALY":281.4708,"EPHEMERIS_TYPE":0,"CLASSIFICATION_TYPE":"U","NORAD_CAT_ID":44850,"ELEMENT_SET_NO":999,"REV_AT_EPOCH":2091,"BSTAR":1.6595,"MEAN_MOTION_DOT":-3.8e-7,"MEAN_MOTION_DDOT":0},{"OBJECT_NAME":"COSMOS 2545 (760)","OBJECT_ID":"2020-018A","EPOCH":"2022-08-19T07:23:23.951040","MEAN_MOTION":2.13102762,"ECCENTRICITY":0.0007737,"INCLINATION":64.9156,"RA_OF_ASC_NODE":1.1258,"ARG_OF_PERICENTER":233.6871,"MEAN_ANOMALY":133.4306,"EPHEMERIS_TYPE":0,"CLASSIFICATION_TYPE":"U","NORAD_CAT_ID":45358,"ELEMENT_SET_NO":999,"REV_AT_EPOCH":1887,"BSTAR":0,"MEAN_MOTION_DOT":-8.6e-7,"MEAN_MOTION_DDOT":0},{"OBJECT_NAME":"COSMOS 2547 (705K)","OBJECT_ID":"2020-075A","EPOCH":"2022-08-18T18:00:02.668032","MEAN_MOTION":2.13103028,"ECCENTRICITY":0.000871,"INCLINATION":64.6542,"RA_OF_ASC_NODE":239.3624,"ARG_OF_PERICENTER":245.785,"MEAN_ANOMALY":266.4011,"EPHEMERIS_TYPE":0,"CLASSIFICATION_TYPE":"U","NORAD_CAT_ID":46805,"ELEMENT_SET_NO":999,"REV_AT_EPOCH":1410,"BSTAR":0,"MEAN_MOTION_DOT":7.6e-7,"MEAN_MOTION_DDOT":0},{"OBJECT_NAME":"COSMOS 2557 (706K)","OBJECT_ID":"2022-075A","EPOCH":"2022-08-19T13:49:27.365088","MEAN_MOTION":2.13101717,"ECCENTRICITY":0.0010512,"INCLINATION":64.8183,"RA_OF_ASC_NODE":3.3186,"ARG_OF_PERICENTER":279.702,"MEAN_ANOMALY":24.2395,"EPHEMERIS_TYPE":0,"CLASSIFICATION_TYPE":"U","NORAD_CAT_ID":52984,"ELEMENT_SET_NO":999,"REV_AT_EPOCH":91,"BSTAR":0.0001,"MEAN_MOTION_DOT":-8.4e-7,"MEAN_MOTION_DDOT":0}]